
    {
      "objectName": "ONEWEB-0095",
      "objectId": "2020-020N",
      "noradId": 45436,
      "epochUtc": "2026-02-27T04:18:25.566912",
      "meanMotionRevPerDay": 13.11416068,
      "eccentricity": 0.0002461,
      "inclinationDeg": 87.8845,
      "raanDeg": 42.9391,
      "argPerigeeDeg": 72.3745,
      "meanAnomalyDeg": 287.7651,
      "bstar": 0.0014279488,
      "meanMotionDot": 0.00000519,
      "meanMotionDdot": 0,
      "elementSetNo": 999,
      "revAtEpoch": 28825
    },
    {
      "objectName": "ONEWEB-0037",
      "objectId": "2020-020S",
      "noradId": 45440,
      "epochUtc": "2026-02-27T05:54:40.049568",
      "meanMotionRevPerDay": 13.11416216,
      "eccentricity": 0.00019087,
      "inclinationDeg": 87.8857,
      "raanDeg": 42.8932,
      "argPerigeeDeg": 81.4563,
      "meanAnomalyDeg": 278.6781,
      "bstar": 0.0016998003,
      "meanMotionDot": 0.00000615,
      "meanMotionDdot": 0,
      "elementSetNo": 999,
      "revAtEpoch": 28828
    },
    {
      "objectName": "ONEWEB-0055",
      "objectId": "2020-020V",
      "noradId": 45443,
      "epochUtc": "2026-02-27T05:37:34.838400",
      "meanMotionRevPerDay": 13.11417906,
      "eccentricity": 0.00018662,
      "inclinationDeg": 87.8848,
      "raanDeg": 42.9295,
      "argPerigeeDeg": 86.9455,
      "meanAnomalyDeg": 273.1886,
      "bstar": 0.00038083114,
      "meanMotionDot": 0.00000148,
      "meanMotionDdot": 0,
      "elementSetNo": 999,
      "revAtEpoch": 28820
    },
    {
      "objectName": "ONEWEB-0046",
      "objectId": "2020-020Z",
      "noradId": 45447,
      "epochUtc": "2026-02-27T04:49:56.341056",
      "meanMotionRevPerDay": 13.11414118,
      "eccentricity": 0.00017762,
      "inclinationDeg": 87.8847,
      "raanDeg": 42.9347,
      "argPerigeeDeg": 78.2571,
      "meanAnomalyDeg": 281.8757,
      "bstar": -0.00097933439,
      "meanMotionDot": -0.00000334,
      "meanMotionDdot": 0,
      "elementSetNo": 999,
      "revAtEpoch": 28819
    },
    {
      "objectName": "ONEWEB-0087",
      "objectId": "2020-020AD",
      "noradId": 45451,
      "epochUtc": "2026-02-27T05:45:54.741024",
      "meanMotionRevPerDay": 13.11417054,
      "eccentricity": 0.00015632,
      "inclinationDeg": 87.886,
      "raanDeg": 42.8904,
      "argPerigeeDeg": 86.9987,
      "meanAnomalyDeg": 273.132,
      "bstar": 0.0013293066,
      "meanMotionDot": 0.00000484,
      "meanMotionDdot": 0,
      "elementSetNo": 999,
      "revAtEpoch": 28817
    },
    {
      "objectName": "ONEWEB-0034",
      "objectId": "2020-020AG",
      "noradId": 45454,
      "epochUtc": "2026-02-27T04:21:52.793856",
      "meanMotionRevPerDay": 13.11413891,
      "eccentricity": 0.00018302,
      "inclinationDeg": 87.8848,
      "raanDeg": 42.9315,
      "argPerigeeDeg": 87.4426,
      "meanAnomalyDeg": 272.6911,
      "bstar": 0.001244608,
      "meanMotionDot": 0.00000454,
      "meanMotionDdot": 0,
      "elementSetNo": 999,
      "revAtEpoch": 28817
    },
    {
      "objectName": "ONEWEB-0102",
      "objectId": "2020-100A",
      "noradId": 47258,
      "epochUtc": "2026-02-27T06:37:44.104224",
      "meanMotionRevPerDay": 13.12441876,
      "eccentricity": 0.00017581,
      "inclinationDeg": 87.898,
      "raanDeg": 12.4952,
      "argPerigeeDeg": 88.4414,
      "meanAnomalyDeg": 271.6916,
      "bstar": -0.001173762,
      "meanMotionDot": -0.0000041,
      "meanMotionDdot": 0,
      "elementSetNo": 999,
      "revAtEpoch": 25031
    },
    {
      "objectName": "ONEWEB-0111",
      "objectId": "2020-100D",
      "noradId": 47261,
      "epochUtc": "2026-02-27T06:23:05.925120",
      "meanMotionRevPerDay": 13.12441048,
      "eccentricity": 0.00017034,
      "inclinationDeg": 87.899,
      "raanDeg": 12.4741,
      "argPerigeeDeg": 80.2494,
      "meanAnomalyDeg": 279.8827,
      "bstar": -0.00027642807,
      "meanMotionDot": -8.7e-7,
      "meanMotionDdot": 0,
      "elementSetNo": 999,
      "revAtEpoch": 25014
    },
    {
      "objectName": "ONEWEB-0119",
      "objectId": "2020-100H",
      "noradId": 47265,
      "epochUtc": "2026-02-27T06:30:25.079040",
      "meanMotionRevPerDay": 13.12440914,
      "eccentricity": 0.00018448,
      "inclinationDeg": 87.8981,
      "raanDeg": 12.4919,
      "argPerigeeDeg": 81.0282,
      "meanAnomalyDeg": 279.1055,
      "bstar": -0.00091196386,
      "meanMotionDot": -0.00000315,
      "meanMotionDdot": 0,
      "elementSetNo": 999,
      "revAtEpoch": 25028
    },
    {
      "objectName": "ONEWEB-0123",
      "objectId": "2020-100M",
      "noradId": 47269,
      "epochUtc": "2026-02-27T06:32:51.149472",
      "meanMotionRevPerDay": 13.12441048,
      "eccentricity": 0.00018811,
      "inclinationDeg": 87.8978,
      "raanDeg": 12.4905,
      "argPerigeeDeg": 77.5916,
      "meanAnomalyDeg": 282.5423,
      "bstar": -0.00082597233,
      "meanMotionDot": -0.00000284,
      "meanMotionDdot": 0,
      "elementSetNo": 999,
      "revAtEpoch": 25027
    },
    {
      "objectName": "ONEWEB-0126",
      "objectId": "2020-100Q",
      "noradId": 47272,
      "epochUtc": "2026-02-27T06:15:58.427424",
      "meanMotionRevPerDay": 13.12440618,
      "eccentricity": 0.00019618,
      "inclinationDeg": 87.8991,
      "raanDeg": 12.4903,
      "argPerigeeDeg": 80.9603,
      "meanAnomalyDeg": 279.1748,
      "bstar": 0.00023890038,
      "meanMotionDot": 9.9e-7,
      "meanMotionDdot": 0,
      "elementSetNo": 999,
      "revAtEpoch": 25028
    },
    {
      "objectName": "ONEWEB-0130",
      "objectId": "2020-100U",
      "noradId": 47276,
      "epochUtc": "2026-02-27T06:08:27.965472",
      "meanMotionRevPerDay": 13.1244073,
      "eccentricity": 0.00019035,
      "inclinationDeg": 87.8987,
      "raanDeg": 12.4668,
      "argPerigeeDeg": 83.5534,
      "meanAnomalyDeg": 276.5812,
      "bstar": 0.00070557909,
      "meanMotionDot": 0.00000267,
      "meanMotionDdot": 0,
      "elementSetNo": 999,
      "revAtEpoch": 25022
    },
    {
      "objectName": "ONEWEB-0134",
      "objectId": "2020-100Y",
      "noradId": 47280,
      "epochUtc": "2026-02-27T06:25:32.385216",
      "meanMotionRevPerDay": 13.12441331,
      "eccentricity": 0.00019122,
      "inclinationDeg": 87.8994,
      "raanDeg": 12.4537,
      "argPerigeeDeg": 89.1657,
      "meanAnomalyDeg": 270.9691,
      "bstar": -0.0004988391,
      "meanMotionDot": -0.00000167,
      "meanMotionDdot": 0,
      "elementSetNo": 999,
      "revAtEpoch": 25029
    },
    {
      "objectName": "ONEWEB-0137",
      "objectId": "2020-100AB",
      "noradId": 47283,
      "epochUtc": "2026-02-26T20:01:00.057216",
      "meanMotionRevPerDay": 13.12443024,
      "eccentricity": 0.00018936,
      "inclinationDeg": 87.8989,
      "raanDeg": 12.5543,
      "argPerigeeDeg": 76.6492,
      "meanAnomalyDeg": 283.4848,
      "bstar": -0.00085150297,
      "meanMotionDot": -0.00000294,
      "meanMotionDdot": 0,
      "elementSetNo": 999,
      "revAtEpoch": 25009
    }