ONEWEB-0095             
1 45436U 20020N   26058.17946258  .00000519  00000+0  14279-2 0  9998
2 45436  87.8845  42.9391 0002461  72.3745 287.7651 13.11416068288255
ONEWEB-0037             
1 45440U 20020S   26058.24629687  .00000615  00000+0  16998-2 0  9992
2 45440  87.8857  42.8932 0001908  81.4563 278.6781 13.11416216288288
ONEWEB-0055             
1 45443U 20020V   26058.23443100  .00000148  00000+0  38083-3 0  9999
2 45443  87.8848  42.9295 0001866  86.9455 273.1886 13.11417906288202
ONEWEB-0046             
1 45447U 20020Z   26058.20134654 -.00000334  00000+0 -97933-3 0  9999
2 45447  87.8847  42.9347 0001776  78.2571 281.8757 13.11414118288199
ONEWEB-0087             
1 45451U 20020AD  26058.24021691  .00000484  00000+0  13293-2 0  9994
2 45451  87.8860  42.8904 0001563  86.9987 273.1320 13.11417054288178
ONEWEB-0034             
1 45454U 20020AG  26058.18186104  .00000454  00000+0  12446-2 0  9997
2 45454  87.8848  42.9315 0001830  87.4426 272.6911 13.11413891288170
ONEWEB-0102             
1 47258U 20100A   26058.27620491 -.00000410  00000+0 -11738-2 0  9999
2 47258  87.8980  12.4952 0001758  88.4414 271.6916 13.12441876250311
ONEWEB-0111             
1 47261U 20100D   26058.26604080 -.00000087  00000+0 -27643-3 0  9991
2 47261  87.8990  12.4741 0001703  80.2494 279.8827 13.12441048250143
ONEWEB-0119             
1 47265U 20100H   26058.27112360 -.00000315  00000+0 -91196-3 0  9999
2 47265  87.8981  12.4919 0001844  81.0282 279.1055 13.12440914250286
ONEWEB-0123             
1 47269U 20100M   26058.27281423 -.00000284  00000+0 -82597-3 0  9990
2 47269  87.8978  12.4905 0001881  77.5916 282.5423 13.12441048250271
ONEWEB-0126             
1 47272U 20100Q   26058.26109291  .00000099  00000+0  23890-3 0  9998
2 47272  87.8991  12.4903 0001961  80.9603 279.1748 13.12440618250283
ONEWEB-0130             
1 47276U 20100U   26058.25587923  .00000267  00000+0  70558-3 0  9993
2 47276  87.8987  12.4668 0001903  83.5534 276.5812 13.12440730250220
ONEWEB-0134             
1 47280U 20100Y   26058.26773594 -.00000167  00000+0 -49884-3 0  9999
2 47280  87.8994  12.4537 0001912  89.1657 270.9691 13.12441331250294
ONEWEB-0137             
1 47283U 20100AB  26057.83402844 -.00000294  00000+0 -85150-3 0  9998
2 47283  87.8989  12.5543 0001893  76.6492 283.4848 13.12443024250097
